[{"OBJECT_NAME":"STARLINK-35076","OBJECT_ID":"2025-194Z","EPOCH":"2026-03-09T13:08:02.056992","MEAN_MOTION":15.05648502,"ECCENTRICITY":0.00018685,"INCLINATION":97.6024,"RA_OF_ASC_NODE":284.2131,"ARG_OF_PERICENTER":77.2963,"MEAN_ANOMALY":282.8472,"EPHEMERIS_TYPE":0,"CLASSIFICATION_TYPE":"U","NORAD_CAT_ID":65457,"ELEMENT_SET_NO":999,"REV_AT_EPOCH":2962,"BSTAR":0.00020624272,"MEAN_MOTION_DOT":2.916e-5,"MEAN_MOTION_DDOT":0},{"OBJECT_NAME":"COSMOS 886 DEB","OBJECT_ID":"1976-126BP","EPOCH":"2026-03-09T09:25:45.501600","MEAN_MOTION":13.48223291,"ECCENTRICITY":0.07109258,"INCLINATION":65.7793,"RA_OF_ASC_NODE":49.267,"ARG_OF_PERICENTER":88.0279,"MEAN_ANOMALY":57.007,"EPHEMERIS_TYPE":0,"CLASSIFICATION_TYPE":"U","NORAD_CAT_ID":14502,"ELEMENT_SET_NO":999,"REV_AT_EPOCH":14461,"BSTAR":0.00098756345,"MEAN_MOTION_DOT":2.959e-5,"MEAN_MOTION_DDOT":0}]
